[{"OBJECT_NAME":"STARLINK-30298","OBJECT_ID":"2023-124C","EPOCH":"2026-03-09T14:52:57.273312","MEAN_MOTION":15.30189614,"ECCENTRICITY":0.0001425,"INCLINATION":53.1607,"RA_OF_ASC_NODE":207.3888,"ARG_OF_PERICENTER":95.3928,"MEAN_ANOMALY":264.7235,"EPHEMERIS_TYPE":0,"CLASSIFICATION_TYPE":"U","NORAD_CAT_ID":57665,"ELEMENT_SET_NO":999,"REV_AT_EPOCH":14355,"BSTAR":-3.1256e-5,"MEAN_MOTION_DOT":-1.285e-5,"MEAN_MOTION_DDOT":0},{"OBJECT_NAME":"STARLINK-36554","OBJECT_ID":"2026-012K","EPOCH":"2026-03-08T17:06:15.871680","MEAN_MOTION":15.27591469,"ECCENTRICITY":6.955e-5,"INCLINATION":42.9934,"RA_OF_ASC_NODE":319.8184,"ARG_OF_PERICENTER":339.2059,"MEAN_ANOMALY":20.8765,"EPHEMERIS_TYPE":0,"CLASSIFICATION_TYPE":"U","NORAD_CAT_ID":67502,"ELEMENT_SET_NO":999,"REV_AT_EPOCH":761,"BSTAR":0.0011969118,"MEAN_MOTION_DOT":0.00032833,"MEAN_MOTION_DDOT":0}]
